NORAD_CAT_ID,OBJECT_NAME,OBJECT_TYPE,EPOCH,MEAN_MOTION,ECCENTRICITY,INCLINATION,RA_OF_ASC_NODE,ARG_OF_PERICENTER,MEAN_ANOMALY,BSTAR,MEAN_MOTION_DOT,MEAN_MOTION_DDOT,TLE_LINE0,TLE_LINE1,TLE_LINE2,SEMIMAJOR_AXIS,PERIOD,APOGEE,PERIGEE,DECAYED
51779.0,STARLINK-3611,PAYLOAD,2024-02-12 11:05:11,15.08853487,0.0001743,53.2172,134.0115,94.9182,265.2009,0.0001677,2.383e-05,0.0,0 STARLINK-3611,1 51779U 22017M   24043.46194131  .00002383  00000-0  16770-3 0  9993,2 51779  53.2172 134.0115 0001743  94.9182 265.2009 15.08853487108400,6917.839,95.437,540.91,538.498,0.0
51779.0,STARLINK-3611,PAYLOAD,2024-02-13 12:31:22,15.08835437,0.0001546,53.2162,129.2538,93.8713,266.2456,-8.4652e-05,-1.635e-05,0.0,0 STARLINK-3611,1 51779U 22017M   24044.52179110 -.00001635  00000-0 -84652-4 0  9997,2 51779  53.2162 129.2538 0001546  93.8713 266.2456 15.08835437110059,6917.894,95.438,540.829,538.69,0.0
51779.0,STARLINK-3611,PAYLOAD,2024-02-13 22:03:41,15.08836564,0.0001519,53.216,127.4684,92.9895,267.1271,-2.9121e-05,-7.51e-06,0.0,0 STARLINK-3611,1 51779U 22017M   24044.91923172 -.00000751  00000-0 -29121-4 0  9993,2 51779  53.2160 127.4684 0001519  92.9895 267.1271 15.08836564108627,6917.891,95.438,540.807,538.705,0.0
51779.0,STARLINK-3611,PAYLOAD,2024-02-14 12:22:08,15.08853581,0.0001436,53.2157,124.7902,83.0574,277.0581,0.00022614,3.314e-05,0.0,0 STARLINK-3611,1 51779U 22017M   24045.51538100  .00003314  00000-0  22614-3 0  9998,2 51779  53.2157 124.7902 0001436  83.0574 277.0581 15.08853581110208,6917.839,95.437,540.697,538.71,0.0
51779.0,STARLINK-3611,PAYLOAD,2024-02-14 13:57:31,15.08855481,0.0001536,53.2162,124.493,85.4897,274.6271,0.00026208,3.887e-05,0.0,0 STARLINK-3611,1 51779U 22017M   24045.58162024  .00003887  00000-0  26208-3 0  9991,2 51779  53.2162 124.4930 0001536  85.4897 274.6271 15.08855481108721,6917.833,95.437,540.761,538.635,0.0
51779.0,STARLINK-3611,PAYLOAD,2024-02-14 21:54:28,15.08844464,0.0001399,53.2155,123.006,81.4719,278.6431,0.00028216,4.206e-05,0.0,0 STARLINK-3611,1 51779U 22017M   24045.91282739  .00004206  00000-0  28216-3 0  9991,2 51779  53.2155 123.0060 0001399  81.4719 278.6431 15.08844464108774,6917.867,95.437,540.7,538.764,0.0
51779.0,STARLINK-3611,PAYLOAD,2024-02-15 10:37:34,15.08826286,0.0001518,53.2157,120.6278,80.394,279.7223,-4.1569e-05,-9.49e-06,0.0,0 STARLINK-3611,1 51779U 22017M   24046.44276029 -.00000949  00000-0 -41569-4 0  9994,2 51779  53.2157 120.6278 0001518  80.3940 279.7223 15.08826286110346,6917.922,95.438,540.837,538.737,0.0
51779.0,STARLINK-3611,PAYLOAD,2024-02-15 13:48:20,15.08833394,0.0001715,53.2164,120.0334,80.1703,279.9483,6.1272e-06,-1.91e-06,0.0,0 STARLINK-3611,1 51779U 22017M   24046.57523654 -.00000191  00000-0  61272-5 0  9999,2 51779  53.2164 120.0334 0001715  80.1703 279.9483 15.08833394108878,6917.901,95.438,540.952,538.579,0.0
51779.0,STARLINK-3611,PAYLOAD,2024-02-15 21:45:16,15.0883382,0.0001437,53.2151,118.5458,82.6295,277.486,5.0206e-06,-2.08e-06,0.0,0 STARLINK-3611,1 51779U 22017M   24046.90643679 -.00000208  00000-0  50206-5 0  9990,2 51779  53.2151 118.5458 0001437  82.6295 277.4860 15.08833820108929,6917.899,95.438,540.758,538.77,0.0
51779.0,STARLINK-3611,PAYLOAD,2024-02-16 12:03:42,15.08886586,0.0001663,53.2157,115.8686,82.4678,277.6503,0.00093582,0.00014656,0.0,0 STARLINK-3611,1 51779U 22017M   24047.50257610  .00014656  00000-0  93582-3 0  9996,2 51779  53.2157 115.8686 0001663  82.4678 277.6503 15.08886586110502,6917.738,95.435,540.753,538.453,0.0
51779.0,STARLINK-3611,PAYLOAD,2024-02-16 13:39:05,15.08890334,0.0001648,53.2155,115.5709,84.9595,275.1585,0.00098455,0.00015437,0.0,0 STARLINK-3611,1 51779U 22017M   24047.56881298  .00015437  00000-0  98455-3 0  9999,2 51779  53.2155 115.5709 0001648  84.9595 275.1585 15.08890334109025,6917.727,95.434,540.732,538.452,0.0
51779.0,STARLINK-3611,PAYLOAD,2024-02-17 10:19:08,15.08834457,0.0001684,53.2173,111.7055,91.6627,268.4558,-8.8069e-05,-1.689e-05,0.0,0 STARLINK-3611,1 51779U 22017M   24048.42995380 -.00001689  00000-0 -88069-4 0  9990,2 51779  53.2173 111.7055 0001684  91.6627 268.4558 15.08834457110647,6917.897,95.438,540.927,538.597,0.0
51779.0,STARLINK-3611,PAYLOAD,2024-02-17 21:26:50,15.08829235,0.0001575,53.2162,109.6238,95.1664,264.9508,-0.00014235,-2.552e-05,0.0,0 STARLINK-3611,1 51779U 22017M   24048.89363878 -.00002552  00000-0 -14235-3 0  9995,2 51779  53.2162 109.6238 0001575  95.1664 264.9508 15.08829235109229,6917.913,95.438,540.868,538.689,0.0
51779.0,STARLINK-3611,PAYLOAD,2024-02-18 10:09:55,15.08839662,0.0001501,53.2153,107.2476,87.9797,272.1367,0.00014427,2.009e-05,0.0,0 STARLINK-3611,1 51779U 22017M   24049.42355958  .00002009  00000-0  14427-3 0  9993,2 51779  53.2153 107.2476 0001501  87.9797 272.1367 15.08839662109300,6917.881,95.438,540.785,538.708,0.0
51779.0,STARLINK-3611,PAYLOAD,2024-02-18 21:17:37,15.0883716,0.0001817,53.2137,105.1635,95.5604,264.5596,0.00016194,2.29e-05,0.0,0 STARLINK-3611,1 51779U 22017M   24049.88723841  .00002290  00000-0  16194-3 0  9998,2 51779  53.2137 105.1635 0001817  95.5604 264.5596 15.08837160109375,6917.889,95.438,541.011,538.497,0.0
51779.0,STARLINK-3611,PAYLOAD,2024-02-19 10:00:42,15.08842044,0.0001849,53.2159,102.7836,98.8289,261.2913,0.00038049,5.773e-05,0.0,0 STARLINK-3611,1 51779U 22017M   24050.41716387  .00005773  00000-0  38049-3 0  9998,2 51779  53.2159 102.7836 0001849  98.8289 261.2913 15.08842044109458,6917.874,95.437,541.018,538.46,0.0
51779.0,STARLINK-3611,PAYLOAD,2024-02-20 03:29:57,15.08840311,0.0001772,53.215,99.5135,91.7773,268.3422,0.00012592,1.717e-05,0.0,0 STARLINK-3611,1 51779U 22017M   24051.14580544  .00001717  00000-0  12592-3 0  9992,2 51779  53.2150  99.5135 0001772  91.7773 268.3422 15.08840311111056,6917.879,95.438,540.97,538.519,0.0
51779.0,STARLINK-3611,PAYLOAD,2024-02-20 09:51:30,15.08841495,0.0001744,53.216,98.3254,88.1619,271.9573,0.00015539,2.186e-05,0.0,0 STARLINK-3611,1 51779U 22017M   24051.41076546  .00002186  00000-0  15539-3 0  9999,2 51779  53.2160  98.3254 0001744  88.1619 271.9573 15.08841495109603,6917.876,95.437,540.947,538.534,0.0
51779.0,STARLINK-3611,PAYLOAD,2024-02-21 09:42:16,15.08849711,0.0001759,53.2161,93.8651,86.8934,273.2259,0.00027268,4.055e-05,0.0,0 STARLINK-3611,1 51779U 22017M   24052.40436174  .00004055  00000-0  27268-3 0  9995,2 51779  53.2161  93.8651 0001759  86.8934 273.2259 15.08849711111244,6917.851,95.437,540.933,538.499,0.0
51779.0,STARLINK-3611,PAYLOAD,2024-02-21 19:14:35,15.08843625,0.0001654,53.2155,92.0801,87.18,272.9382,9.7473e-05,1.264e-05,0.0,0 STARLINK-3611,1 51779U 22017M   24052.80180104  .00001264  00000-0  97473-4 0  9993,2 51779  53.2155  92.0801 0001654  87.1800 272.9382 15.08843625109816,6917.869,95.437,540.879,538.59,0.0
51779.0,STARLINK-3611,PAYLOAD,2024-02-22 09:33:04,15.08833548,0.0001764,53.2162,89.4066,95.0079,265.1114,-1.9975e-05,-6.06e-06,0.0,0 STARLINK-3611,1 51779U 22017M   24053.39796887 -.00000606  00000-0 -19975-4 0  9991,2 51779  53.2162  89.4066 0001764  95.0079 265.1114 15.08833548111391,6917.9,95.438,540.985,538.545,0.0
51779.0,STARLINK-3611,PAYLOAD,2024-02-22 19:05:23,15.08837107,0.0001881,53.2173,87.6225,95.266,264.8547,1.2003e-05,-9.7e-07,0.0,0 STARLINK-3611,1 51779U 22017M   24053.79540779 -.00000097  00000-0  12003-4 0  9990,2 51779  53.2173  87.6225 0001881  95.2660 264.8547 15.08837107109969,6917.889,95.438,541.055,538.453,0.0
51779.0,STARLINK-3611,PAYLOAD,2024-02-23 10:59:13,15.08851005,0.0001731,53.217,84.648,97.1383,262.9806,0.00010665,1.41e-05,0.0,0 STARLINK-3611,1 51779U 22017M   24054.45779952  .00001410  00000-0  10665-3 0  9991,2 51779  53.2170  84.6480 0001731  97.1383 262.9806 15.08851005111551,6917.847,95.437,540.909,538.514,0.0
51779.0,STARLINK-3611,PAYLOAD,2024-02-24 10:50:01,15.08840598,0.0001624,53.2169,80.1857,98.0285,262.0892,0.00012865,1.76e-05,0.0,0 STARLINK-3611,1 51779U 22017M   24055.45140918  .00001760  00000-0  12865-3 0  9998,2 51779  53.2169  80.1857 0001624  98.0285 262.0892 15.08840598111708,6917.879,95.438,540.867,538.62,0.0
51779.0,STARLINK-3611,PAYLOAD,2024-02-24 18:46:57,15.08839517,0.0001642,53.2156,78.6983,86.7561,273.3619,9.1994e-05,1.176e-05,0.0,0 STARLINK-3611,1 51779U 22017M   24055.78260904  .00001176  00000-0  91994-4 0  9994,2 51779  53.2156  78.6983 0001642  86.7561 273.3619 15.08839517110268,6917.882,95.438,540.883,538.611,0.0
51779.0,STARLINK-3611,PAYLOAD,2024-02-25 09:05:25,15.08851095,0.0001608,53.2154,76.0207,87.7992,272.3184,0.00015457,2.174e-05,0.0,0 STARLINK-3611,1 51779U 22017M   24056.37876329  .00002174  00000-0  15457-3 0  9992,2 51779  53.2154  76.0207 0001608  87.7992 272.3184 15.08851095110359,6917.846,95.437,540.824,538.599,0.0
51779.0,STARLINK-3611,PAYLOAD,2024-02-25 18:37:44,15.08846683,0.0001588,53.2153,74.2378,87.1629,272.9545,0.00014442,2.012e-05,0.0,0 STARLINK-3611,1 51779U 22017M   24056.77620554  .00002012  00000-0  14442-3 0  9997,2 51779  53.2153  74.2378 0001588  87.1629 272.9545 15.08846683111901,6917.86,95.437,540.824,538.626,0.0
51779.0,STARLINK-3611,PAYLOAD,2024-02-26 00:59:17,15.08839461,0.0001767,53.2158,73.0487,90.634,269.4854,0.0001074,1.422e-05,0.0,0 STARLINK-3611,1 51779U 22017M   24057.04117038  .00001422  00000-0  10740-3 0  9997,2 51779  53.2158  73.0487 0001767  90.6340 269.4854 15.08839461111946,6917.882,95.438,540.969,538.525,0.0
51779.0,STARLINK-3611,PAYLOAD,2024-02-26 10:31:35,15.088446,0.0001771,53.2171,71.2638,92.5914,267.5281,0.00011654,1.567e-05,0.0,0 STARLINK-3611,1 51779U 22017M   24057.43860663  .00001567  00000-0  11654-3 0  9994,2 51779  53.2171  71.2638 0001771  92.5914 267.5281 15.08844600110518,6917.866,95.437,540.956,538.506,0.0
51779.0,STARLINK-3611,PAYLOAD,2024-02-27 04:00:50,15.08839853,0.0001789,53.2177,67.9944,92.4103,267.7094,4.6282e-05,4.49e-06,0.0,0 STARLINK-3611,1 51779U 22017M   24058.16725203  .00000449  00000-0  46282-4 0  9999,2 51779  53.2177  67.9944 0001789  92.4103 267.7094 15.08839853112110,6917.881,95.438,540.983,538.508,0.0
